NORAD_CAT_ID,OBJECT_NAME,OBJECT_TYPE,EPOCH,MEAN_MOTION,ECCENTRICITY,INCLINATION,RA_OF_ASC_NODE,ARG_OF_PERICENTER,MEAN_ANOMALY,BSTAR,MEAN_MOTION_DOT,MEAN_MOTION_DDOT,TLE_LINE0,TLE_LINE1,TLE_LINE2,SEMIMAJOR_AXIS,PERIOD,APOGEE,PERIGEE,DECAYED
49178.0,STARLINK-3086,PAYLOAD,2023-03-25 20:15:01,14.98302902,0.0003549,69.9994,137.133,251.8606,108.2166,-0.00036471,-4.439e-05,0.0,0 STARLINK-3086,1 49178U 21082BA  23084.84377045 -.00004439  00000-0 -36471-3 0  9993,2 49178  69.9994 137.1330 0003549 251.8606 108.2166 14.98302902 85380,6950.277,96.109,574.608,569.675,0.0
49178.0,STARLINK-3086,PAYLOAD,2023-03-26 12:16:23,14.98323909,0.0003607,69.9986,135.4479,258.9089,101.1665,0.0014669,0.00017451,0.0,0 STARLINK-3086,1 49178U 21082BA  23085.51138234  .00017451  00000-0  14669-2 0  9993,2 49178  69.9986 135.4479 0003607 258.9089 101.1665 14.98323909 85481,6950.212,96.107,574.584,569.57,0.0
49178.0,STARLINK-3086,PAYLOAD,2023-03-26 20:17:03,14.98334575,0.0003482,69.9988,134.6065,256.8013,103.2757,0.0013885,0.00016516,0.0,0 STARLINK-3086,1 49178U 21082BA  23085.84518295  .00016516  00000-0  13885-2 0  9998,2 49178  69.9988 134.6065 0003482 256.8013 103.2757 14.98334575 85532,6950.179,96.107,574.464,569.624,0.0
49178.0,STARLINK-3086,PAYLOAD,2023-03-27 04:17:41,14.98461777,0.0002889,69.9988,133.7648,245.2598,114.826,0.0067376,0.00081518,0.0,0 STARLINK-3086,1 49178U 21082BA  23086.17895383  .00081518  00000-0  67376-2 0  9999,2 49178  69.9988 133.7648 0002889 245.2598 114.8260 14.98461777 85586,6949.785,96.099,573.658,569.643,0.0
49178.0,STARLINK-3086,PAYLOAD,2023-03-27 12:18:13,14.98696113,0.0003354,70.0021,132.9267,228.1412,131.9462,0.010263,0.00125774,0.0,0 STARLINK-3086,1 49178U 21082BA  23086.51266091  .00125774  00000-0  10263-1 0  9990,2 49178  70.0021 132.9267 0003354 228.1412 131.9462 14.98696113 85632,6949.061,96.084,573.257,568.595,0.0
49178.0,STARLINK-3086,PAYLOAD,2023-03-27 20:18:41,14.98940227,0.0003458,69.9992,132.0804,256.0711,104.0064,0.0085545,0.00105175,0.0,0 STARLINK-3086,1 49178U 21082BA  23086.84631313  .00105175  00000-0  85545-2 0  9998,2 49178  69.9992 132.0804 0003458 256.0711 104.0064 14.98940227 85683,6948.306,96.068,572.574,567.769,0.0
49178.0,STARLINK-3086,PAYLOAD,2023-03-28 05:55:13,14.9905318,0.0003095,69.9995,131.0713,264.7916,95.289,0.0096055,0.00118683,0.0,0 STARLINK-3086,1 49178U 21082BA  23087.24667967  .00118683  00000-0  96055-2 0  9993,2 49178  69.9995 131.0713 0003095 264.7916  95.2890 14.99053180 85743,6947.957,96.061,571.973,567.672,0.0
49178.0,STARLINK-3086,PAYLOAD,2023-03-28 12:19:32,14.99110354,0.0003018,69.9996,130.3975,266.1254,93.9561,0.0048908,0.00059966,0.0,0 STARLINK-3086,1 49178U 21082BA  23087.51356898  .00059966  00000-0  48908-2 0  9993,2 49178  69.9996 130.3975 0003018 266.1254  93.9561 14.99110354 85783,6947.781,96.057,571.743,567.549,0.0
49178.0,STARLINK-3086,PAYLOAD,2023-03-28 20:19:56,14.99137072,0.0002794,69.9998,129.5532,267.8767,92.2072,0.0012394,0.00015039,0.0,0 STARLINK-3086,1 49178U 21082BA  23087.84718293  .00015039  00000-0  12394-2 0  9993,2 49178  69.9998 129.5532 0002794 267.8767  92.2072 14.99137072 85832,6947.698,96.055,571.504,567.622,0.0
49178.0,STARLINK-3086,PAYLOAD,2023-03-29 08:00:01,14.99165176,0.0003012,69.9997,128.3267,269.1287,193.9862,-0.0032049,-0.00038955,0.0,0 STARLINK-3086,1 49178U 21082BA  23088.33334491 -.00038955  00000-0 -32049-2 0  9995,2 49178  69.9997 128.3267 0003012 269.1287 193.9862 14.99165176 85909,6947.611,96.053,571.569,567.384,0.0
49178.0,STARLINK-3086,PAYLOAD,2023-03-29 14:00:01,14.99227105,0.0003004,69.9996,127.6953,273.9481,98.0079,-0.024609,-0.00288612,0.0,0 STARLINK-3086,1 49178U 21082BA  23088.58334491 -.00288612  00000-0 -24609-1 0  9991,2 49178  69.9996 127.6953 0003004 273.9481  98.0079 14.99227105  1300,6947.42,96.049,571.372,567.198,0.0
49178.0,STARLINK-3086,PAYLOAD,2023-03-29 22:00:00,14.98996279,0.0002919,69.9998,126.8538,267.3516,103.0594,-0.03212,-0.00370138,0.0,0 STARLINK-3086,1 49178U 21082BA  23088.91667824 -.00370138  00000-0 -32120-1 0  9999,2 49178  69.9998 126.8538 0002919 267.3516 103.0594 14.98996279  1305,6948.133,96.064,572.026,567.97,0.0
49178.0,STARLINK-3086,PAYLOAD,2023-03-30 00:00:00,14.98949248,0.000289,69.9998,126.6436,267.443,192.5258,-0.036394,-0.00416157,0.0,0 STARLINK-3086,1 49178U 21082BA  23089.00001157 -.00416157  00000-0 -36394-1 0  9990,2 49178  69.9998 126.6436 0002890 267.4430 192.5258 14.98949248 86008,6948.279,96.067,572.152,568.136,0.0
49178.0,STARLINK-3086,PAYLOAD,2023-03-30 02:45:33,14.9906924,0.000107,69.9995,126.3531,276.9221,83.1817,-0.0014913,-0.00018183,0.0,0 STARLINK-3086,1 49178U 21082BA  23089.11497617 -.00018183  00000-0 -14913-2 0  9993,2 49178  69.9995 126.3531 0001070 276.9221  83.1817 14.99069240 86024,6947.908,96.06,570.516,569.029,0.0
49178.0,STARLINK-3086,PAYLOAD,2023-03-30 12:22:22,14.98751857,0.0002711,69.9994,125.3438,264.9115,95.1735,-0.0065806,-0.0007859,0.0,0 STARLINK-3086,1 49178U 21082BA  23089.51553436 -.00078590  00000-0 -65806-2 0  9994,2 49178  69.9994 125.3438 0002711 264.9115  95.1735 14.98751857 86089,6948.889,96.08,572.637,568.87,0.0
49178.0,STARLINK-3086,PAYLOAD,2023-03-31 02:47:27,14.98605158,0.0002709,69.9996,123.8294,260.3387,99.7466,-0.0071865,-0.0008541,0.0,0 STARLINK-3086,1 49178U 21082BA  23090.11628500 -.00085410  00000-0 -71865-2 0  9998,2 49178  69.9996 123.8294 0002709 260.3387  99.7466 14.98605158 86175,6949.342,96.089,573.09,569.325,0.0
49178.0,STARLINK-3086,PAYLOAD,2023-03-31 14:00:19,14.98537335,0.0003347,69.9988,122.6497,273.9741,86.1035,-0.006276,-0.00074588,0.0,0 STARLINK-3086,1 49178U 21082BA  23090.58355816 -.00074588  00000-0 -62760-2 0  9994,2 49178  69.9988 122.6497 0003347 273.9741  86.1035 14.98537335 86242,6949.552,96.094,573.743,569.091,0.0
49178.0,STARLINK-3086,PAYLOAD,2023-03-31 18:48:42,14.985097,0.0002898,69.9995,122.1447,278.0215,82.0615,-0.005768,-0.00068565,0.0,0 STARLINK-3086,1 49178U 21082BA  23090.78382783 -.00068565  00000-0 -57680-2 0  9992,2 49178  69.9995 122.1447 0002898 278.0215  82.0615 14.98509700 86279,6949.637,96.095,573.516,569.488,0.0
49178.0,STARLINK-3086,PAYLOAD,2023-04-01 04:25:31,14.98439196,0.0003114,69.999,121.1353,268.1046,91.9756,-0.0037506,-0.00044687,0.0,0 STARLINK-3086,1 49178U 21082BA  23091.18439040 -.00044687  00000-0 -37506-2 0  9990,2 49178  69.9990 121.1353 0003114 268.1046  91.9756 14.98439196 86336,6949.855,96.1,573.884,569.556,0.0
49178.0,STARLINK-3086,PAYLOAD,2023-04-01 12:26:12,14.98470761,0.0003287,69.9976,120.293,276.1988,83.8796,-0.002476,-0.0002962,0.0,0 STARLINK-3086,1 49178U 21082BA  23091.51819796 -.00029620  00000-0 -24760-2 0  9995,2 49178  69.9976 120.2930 0003287 276.1988  83.8796 14.98470761 86388,6949.758,96.098,573.907,569.338,0.0
49178.0,STARLINK-3086,PAYLOAD,2023-04-01 18:50:46,14.98390128,0.0002767,69.9977,119.6195,270.4374,89.6468,-0.0010999,-0.00013212,0.0,0 STARLINK-3086,1 49178U 21082BA  23091.78525589 -.00013212  00000-0 -10999-2 0  9997,2 49178  69.9977 119.6195 0002767 270.4374  89.6468 14.98390128 86425,6950.007,96.103,573.795,569.949,0.0
49178.0,STARLINK-3086,PAYLOAD,2023-04-02 07:39:52,14.98328936,0.000299,69.9977,118.2729,269.2699,90.8117,8.0549e-05,8.68e-06,0.0,0 STARLINK-3086,1 49178U 21082BA  23092.31935337  .00000868  00000-0  80549-4 0  9994,2 49178  69.9977 118.2729 0002990 269.2699  90.8117 14.98328936 86509,6950.196,96.107,574.139,569.983,0.0
49178.0,STARLINK-3086,PAYLOAD,2023-04-02 12:28:16,14.98325766,0.0002998,69.9977,117.7678,269.6735,90.408,0.00012293,1.374e-05,0.0,0 STARLINK-3086,1 49178U 21082BA  23092.51963469  .00001374  00000-0  12293-3 0  9996,2 49178  69.9977 117.7678 0002998 269.6735  90.4080 14.98325766 86535,6950.206,96.107,574.155,569.987,0.0
49178.0,STARLINK-3086,PAYLOAD,2023-04-03 10:54:09,14.98331985,0.0003059,69.9976,115.4114,269.3911,90.6898,5.3439e-05,5.45e-06,0.0,0 STARLINK-3086,1 49178U 21082BA  23093.45427087  .00000545  00000-0  53439-4 0  9998,2 49178  69.9976 115.4114 0003059 269.3911  90.6898 14.98331985 86670,6950.187,96.107,574.178,569.926,0.0
49178.0,STARLINK-3086,PAYLOAD,2023-04-03 18:54:49,14.98331458,0.0003054,69.9976,114.5697,270.4378,89.6431,8.0442e-05,8.67e-06,0.0,0 STARLINK-3086,1 49178U 21082BA  23093.78807056  .00000867  00000-0  80442-4 0  9993,2 49178  69.9976 114.5697 0003054 270.4378  89.6431 14.98331458 86723,6950.188,96.107,574.176,569.931,0.0
49178.0,STARLINK-3086,PAYLOAD,2023-04-04 10:56:09,14.98333564,0.0003156,69.9975,112.8859,269.2894,90.7903,0.00010357,1.143e-05,0.0,0 STARLINK-3086,1 49178U 21082BA  23094.45566808  .00001143  00000-0  10357-3 0  9990,2 49178  69.9975 112.8859 0003156 269.2894  90.7903 14.98333564 86823,6950.182,96.107,574.24,569.853,0.0
49178.0,STARLINK-3086,PAYLOAD,2023-04-05 10:58:10,14.98332541,0.0003119,69.9977,110.3607,269.3321,90.748,5.3067e-05,5.4e-06,0.0,0 STARLINK-3086,1 49178U 21082BA  23095.45706784  .00000540  00000-0  53067-4 0  9996,2 49178  69.9977 110.3607 0003119 269.3321  90.7480 14.98332541 86974,6950.185,96.107,574.218,569.882,0.0
49178.0,STARLINK-3086,PAYLOAD,2023-04-06 11:00:11,14.98333119,0.0003109,69.9979,107.8361,268.0538,92.0265,3.3187e-05,3.03e-06,0.0,0 STARLINK-3086,1 49178U 21082BA  23096.45846591  .00000303  00000-0  33187-4 0  9996,2 49178  69.9979 107.8361 0003109 268.0538  92.0265 14.98333119 87125,6950.183,96.107,574.209,569.887,0.0
49178.0,STARLINK-3086,PAYLOAD,2023-04-06 17:24:43,14.98331602,0.0003086,69.998,107.1623,270.8683,89.2122,2.134e-05,1.62e-06,0.0,0 STARLINK-3086,1 49178U 21082BA  23096.72550705  .00000162  00000-0  21340-4 0  9996,2 49178  69.9980 107.1623 0003086 270.8683  89.2122 14.98331602 87166,6950.188,96.107,574.198,569.908,0.0
49178.0,STARLINK-3086,PAYLOAD,2023-04-07 11:02:12,14.98330706,0.0003096,69.9982,105.3108,269.5683,90.5121,3.1474e-05,2.83e-06,0.0,0 STARLINK-3086,1 49178U 21082BA  23097.45986688  .00000283  00000-0  31474-4 0  9993,2 49178  69.9982 105.3108 0003096 269.5683  90.5121 14.98330706 87272,6950.191,96.107,574.207,569.904,0.0
